SL-14 R/B               
1 21423U 91042B   25350.29356166  .00000445  00000+0  53361-4 0  9995
2 21423  82.4930 298.3904 0017761 150.4538 209.7684 14.81742297840725
ERS-1                   
1 21574U 91050A   25350.28217520  .00000335  00000+0  12170-3 0  9990
2 21574  98.7903   1.4256 0033032  89.8700 270.6272 14.39367601803735
ARIANE 40 R/B           
1 21610U 91050F   25350.11525843  .00000325  00000+0  10992-3 0  9992
2 21610  98.2162  40.4239 0002572 349.8024  10.3114 14.42816133806948
INTERCOSMOS 25          
1 21819U 91086A   25350.26804382  .00001861  00000+0  37051-3 0  9997
2 21819  82.6067   0.4424 1486445 296.7906  48.8744 12.11739771486582
SL-8 R/B                
1 21876U 92008B   25350.32586787  .00000136  00000+0  12376-3 0  9995
2 21876  82.9266 329.7788 0034968   9.9125 103.9483 13.75959718697958
SL-8 R/B                
1 21938U 92020B   25350.19888223  .00000114  00000+0  10262-3 0  9991
2 21938  82.9302 215.7490 0029126 168.4820 311.2152 13.75527881689652
USA 81                  
1 21949U 92023A   25350.24757864  .00000200  00000+0  66640-4 0  9996
2 21949  85.0078 179.5530 0001270  69.8187 290.3142 14.32328170 82848
COSMOS 2219             
1 22219U 92076A   25350.26159067  .00000095  00000+0  74551-4 0  9990
2 22219  71.0572 192.4705 0019142 322.1012  37.8762 14.14063031706588
SL-16 R/B               
1 22220U 92076B   25350.32322186  .00000147  00000+0  97386-4 0  9992
2 22220  71.0005   3.9832 0014592 229.1164 219.5746 14.16841415710023
COSMOS 2221             
1 22236U 92080A   25350.09581233  .00001663  00000+0  14652-3 0  9996
2 22236  82.5041 359.1131 0016196 111.3937 248.9015 14.95773611768293
SL-16 R/B               
1 22285U 92093B   25350.27764555  .00000329  00000+0  19312-3 0  9990
2 22285  71.0200 179.3691 0002245  59.4559 300.6785 14.15432091701352
COSMOS 2228             
1 22286U 92094A   25350.30040972  .00002223  00000+0  19180-3 0  9994
2 22286  82.5177 317.1271 0016757 218.5772 141.4254 14.96746116763587
