CCSDS_OMM_VERS = 2.0
CREATION_DATE  = 
ORIGINATOR     = 

OBJECT_NAME    = SL-14 R/B
OBJECT_ID      = 1991-042B
CENTER_NAME    = EARTH
REF_FRAME      = TEME
TIME_SYSTEM    = UTC
MEAN_ELEMENT_THEORY = SGP/SGP4

EPOCH          = 2025-12-16T07:02:43.727424
MEAN_MOTION    = 14.81742297
ECCENTRICITY   = .00177615
INCLINATION    = 82.4930
RA_OF_ASC_NODE = 298.3904
ARG_OF_PERICENTER = 150.4538
MEAN_ANOMALY   = 209.7684

EPHEMERIS_TYPE = 0
CLASSIFICATION_TYPE = U
NORAD_CAT_ID   = 21423
ELEMENT_SET_NO = 999
REV_AT_EPOCH   = 84072
BSTAR          = .53361081E-4
MEAN_MOTION_DOT = .445E-5
MEAN_MOTION_DDOT = 0

CCSDS_OMM_VERS = 2.0
CREATION_DATE  = 
ORIGINATOR     = 

OBJECT_NAME    = ERS-1
OBJECT_ID      = 1991-050A
CENTER_NAME    = EARTH
REF_FRAME      = TEME
TIME_SYSTEM    = UTC
MEAN_ELEMENT_THEORY = SGP/SGP4

EPOCH          = 2025-12-16T06:46:19.937280
MEAN_MOTION    = 14.39367601
ECCENTRICITY   = .00330329
INCLINATION    = 98.7903
RA_OF_ASC_NODE = 1.4256
ARG_OF_PERICENTER = 89.8700
MEAN_ANOMALY   = 270.6272

EPHEMERIS_TYPE = 0
CLASSIFICATION_TYPE = U
NORAD_CAT_ID   = 21574
ELEMENT_SET_NO = 999
REV_AT_EPOCH   = 80373
BSTAR          = .12170253E-3
MEAN_MOTION_DOT = .335E-5
MEAN_MOTION_DDOT = 0

CCSDS_OMM_VERS = 2.0
CREATION_DATE  = 
ORIGINATOR     = 

OBJECT_NAME    = ARIANE 40 R/B
OBJECT_ID      = 1991-050F
CENTER_NAME    = EARTH
REF_FRAME      = TEME
TIME_SYSTEM    = UTC
MEAN_ELEMENT_THEORY = SGP/SGP4

EPOCH          = 2025-12-16T02:45:58.328352
MEAN_MOTION    = 14.42816133
ECCENTRICITY   = .00025725
INCLINATION    = 98.2162
RA_OF_ASC_NODE = 40.4239
ARG_OF_PERICENTER = 349.8024
MEAN_ANOMALY   = 10.3114

EPHEMERIS_TYPE = 0
CLASSIFICATION_TYPE = U
NORAD_CAT_ID   = 21610
ELEMENT_SET_NO = 999
REV_AT_EPOCH   = 80694
BSTAR          = .10992202E-3
MEAN_MOTION_DOT = .325E-5
MEAN_MOTION_DDOT = 0

CCSDS_OMM_VERS = 2.0
CREATION_DATE  = 
ORIGINATOR     = 

OBJECT_NAME    = INTERCOSMOS 25
OBJECT_ID      = 1991-086A
CENTER_NAME    = EARTH
REF_FRAME      = TEME
TIME_SYSTEM    = UTC
MEAN_ELEMENT_THEORY = SGP/SGP4

EPOCH          = 2025-12-16T06:25:58.986048
MEAN_MOTION    = 12.11739771
ECCENTRICITY   = .14864458
INCLINATION    = 82.6067
RA_OF_ASC_NODE = 0.4424
ARG_OF_PERICENTER = 296.7906
MEAN_ANOMALY   = 48.8744

EPHEMERIS_TYPE = 0
CLASSIFICATION_TYPE = U
NORAD_CAT_ID   = 21819
ELEMENT_SET_NO = 999
REV_AT_EPOCH   = 48658
BSTAR          = .37051474E-3
MEAN_MOTION_DOT = .1861E-4
MEAN_MOTION_DDOT = 0

CCSDS_OMM_VERS = 2.0
CREATION_DATE  = 
ORIGINATOR     = 

OBJECT_NAME    = SL-8 R/B
OBJECT_ID      = 1992-008B
CENTER_NAME    = EARTH
REF_FRAME      = TEME
TIME_SYSTEM    = UTC
MEAN_ELEMENT_THEORY = SGP/SGP4

EPOCH          = 2025-12-16T07:49:14.983968
MEAN_MOTION    = 13.75959718
ECCENTRICITY   = .00349689
INCLINATION    = 82.9266
RA_OF_ASC_NODE = 329.7788
ARG_OF_PERICENTER = 9.9125
MEAN_ANOMALY   = 103.9483

EPHEMERIS_TYPE = 0
CLASSIFICATION_TYPE = U
NORAD_CAT_ID   = 21876
ELEMENT_SET_NO = 999
REV_AT_EPOCH   = 69795
BSTAR          = .12375713E-3
MEAN_MOTION_DOT = .136E-5
MEAN_MOTION_DDOT = 0

CCSDS_OMM_VERS = 2.0
CREATION_DATE  = 
ORIGINATOR     = 

OBJECT_NAME    = SL-8 R/B
OBJECT_ID      = 1992-020B
CENTER_NAME    = EARTH
REF_FRAME      = TEME
TIME_SYSTEM    = UTC
MEAN_ELEMENT_THEORY = SGP/SGP4

EPOCH          = 2025-12-16T04:46:23.424672
MEAN_MOTION    = 13.75527881
ECCENTRICITY   = .0029126
INCLINATION    = 82.9302
RA_OF_ASC_NODE = 215.7490
ARG_OF_PERICENTER = 168.4820
MEAN_ANOMALY   = 311.2152

EPHEMERIS_TYPE = 0
CLASSIFICATION_TYPE = U
NORAD_CAT_ID   = 21938
ELEMENT_SET_NO = 999
REV_AT_EPOCH   = 68965
BSTAR          = .10261736E-3
MEAN_MOTION_DOT = .114E-5
MEAN_MOTION_DDOT = 0

CCSDS_OMM_VERS = 2.0
CREATION_DATE  = 
ORIGINATOR     = 

OBJECT_NAME    = USA 81
OBJECT_ID      = 1992-023A
CENTER_NAME    = EARTH
REF_FRAME      = TEME
TIME_SYSTEM    = UTC
MEAN_ELEMENT_THEORY = SGP/SGP4

EPOCH          = 2025-12-16T05:56:30.794496
MEAN_MOTION    = 14.32328170
ECCENTRICITY   = .00012702
INCLINATION    = 85.0078
RA_OF_ASC_NODE = 179.5530
ARG_OF_PERICENTER = 69.8187
MEAN_ANOMALY   = 290.3142

EPHEMERIS_TYPE = 0
CLASSIFICATION_TYPE = U
NORAD_CAT_ID   = 21949
ELEMENT_SET_NO = 999
REV_AT_EPOCH   = 8284
BSTAR          = .666397E-4
MEAN_MOTION_DOT = .2E-5
MEAN_MOTION_DDOT = 0

CCSDS_OMM_VERS = 2.0
CREATION_DATE  = 
ORIGINATOR     = 

OBJECT_NAME    = COSMOS 2219
OBJECT_ID      = 1992-076A
CENTER_NAME    = EARTH
REF_FRAME      = TEME
TIME_SYSTEM    = UTC
MEAN_ELEMENT_THEORY = SGP/SGP4

EPOCH          = 2025-12-16T06:16:41.433888
MEAN_MOTION    = 14.14063031
ECCENTRICITY   = .00191425
INCLINATION    = 71.0572
RA_OF_ASC_NODE = 192.4705
ARG_OF_PERICENTER = 322.1012
MEAN_ANOMALY   = 37.8762

EPHEMERIS_TYPE = 0
CLASSIFICATION_TYPE = U
NORAD_CAT_ID   = 22219
ELEMENT_SET_NO = 999
REV_AT_EPOCH   = 70658
BSTAR          = .74550931E-4
MEAN_MOTION_DOT = .95E-6
MEAN_MOTION_DDOT = 0

CCSDS_OMM_VERS = 2.0
CREATION_DATE  = 
ORIGINATOR     = 

OBJECT_NAME    = SL-16 R/B
OBJECT_ID      = 1992-076B
CENTER_NAME    = EARTH
REF_FRAME      = TEME
TIME_SYSTEM    = UTC
MEAN_ELEMENT_THEORY = SGP/SGP4

EPOCH          = 2025-12-16T07:45:26.368704
MEAN_MOTION    = 14.16841415
ECCENTRICITY   = .00145927
INCLINATION    = 71.0005
RA_OF_ASC_NODE = 3.9832
ARG_OF_PERICENTER = 229.1164
MEAN_ANOMALY   = 219.5746

EPHEMERIS_TYPE = 0
CLASSIFICATION_TYPE = U
NORAD_CAT_ID   = 22220
ELEMENT_SET_NO = 999
REV_AT_EPOCH   = 71002
BSTAR          = .97386147E-4
MEAN_MOTION_DOT = .147E-5
MEAN_MOTION_DDOT = 0

CCSDS_OMM_VERS = 2.0
CREATION_DATE  = 
ORIGINATOR     = 

OBJECT_NAME    = COSMOS 2221
OBJECT_ID      = 1992-080A
CENTER_NAME    = EARTH
REF_FRAME      = TEME
TIME_SYSTEM    = UTC
MEAN_ELEMENT_THEORY = SGP/SGP4

EPOCH          = 2025-12-16T02:17:58.185312
MEAN_MOTION    = 14.95773611
ECCENTRICITY   = .00161966
INCLINATION    = 82.5041
RA_OF_ASC_NODE = 359.1131
ARG_OF_PERICENTER = 111.3937
MEAN_ANOMALY   = 248.9015

EPHEMERIS_TYPE = 0
CLASSIFICATION_TYPE = U
NORAD_CAT_ID   = 22236
ELEMENT_SET_NO = 999
REV_AT_EPOCH   = 76829
BSTAR          = .14651997E-3
MEAN_MOTION_DOT = .1663E-4
MEAN_MOTION_DDOT = 0

CCSDS_OMM_VERS = 2.0
CREATION_DATE  = 
ORIGINATOR     = 

OBJECT_NAME    = SL-16 R/B
OBJECT_ID      = 1992-093B
CENTER_NAME    = EARTH
REF_FRAME      = TEME
TIME_SYSTEM    = UTC
MEAN_ELEMENT_THEORY = SGP/SGP4

EPOCH          = 2025-12-16T06:39:48.575520
MEAN_MOTION    = 14.15432091
ECCENTRICITY   = .00022454
INCLINATION    = 71.0200
RA_OF_ASC_NODE = 179.3691
ARG_OF_PERICENTER = 59.4559
MEAN_ANOMALY   = 300.6785

EPHEMERIS_TYPE = 0
CLASSIFICATION_TYPE = U
NORAD_CAT_ID   = 22285
ELEMENT_SET_NO = 999
REV_AT_EPOCH   = 70135
BSTAR          = .19312301E-3
MEAN_MOTION_DOT = .329E-5
MEAN_MOTION_DDOT = 0

CCSDS_OMM_VERS = 2.0
CREATION_DATE  = 
ORIGINATOR     = 

OBJECT_NAME    = COSMOS 2228
OBJECT_ID      = 1992-094A
CENTER_NAME    = EARTH
REF_FRAME      = TEME
TIME_SYSTEM    = UTC
MEAN_ELEMENT_THEORY = SGP/SGP4

EPOCH          = 2025-12-16T07:12:35.399808
MEAN_MOTION    = 14.96746116
ECCENTRICITY   = .00167579
INCLINATION    = 82.5177
RA_OF_ASC_NODE = 317.1271
ARG_OF_PERICENTER = 218.5772
MEAN_ANOMALY   = 141.4254

EPHEMERIS_TYPE = 0
CLASSIFICATION_TYPE = U
NORAD_CAT_ID   = 22286
ELEMENT_SET_NO = 999
REV_AT_EPOCH   = 76358
BSTAR          = .19180276E-3
MEAN_MOTION_DOT = .2223E-4
MEAN_MOTION_DDOT = 0

